{
  "type": "FeatureCollection",
  "features": [
    {
      "type": "Feature",
      "geometry": {
        "type": "LineString",
        "coordinates": [
          [
            -87.905,
            41.978
          ],
          [
            -87.86,
            41.976
          ],
          [
            -87.838,
            41.9725
          ],
          [
            -87.807,
            41.9685
          ],
          [
            -87.785,
            41.97
          ],
          [
            -87.757,
            41.968
          ],
          [
            -87.74,
            41.961
          ],
          [
            -87.728,
            41.954
          ],
          [
            -87.712,
            41.938
          ],
          [
            -87.695,
            41.925
          ],
          [
            -87.68,
            41.91
          ],
          [
            -87.668,
            41.903
          ],
          [
            -87.652,
            41.892
          ],
          [
            -87.638,
            41.8756
          ]
        ]
      },
      "properties": {
        "id": "chicago-kennedy",
        "displayName": "Kennedy Expressway I-90/94 (O'Hare to Jane Byrne Interchange)",
        "lengthKm": 26.75,
        "note": "Real Kennedy Expressway (I-90/94) alignment from the O'Hare area southeast to the Jane Byrne Interchange in downtown Chicago. Endpoint and named coordinates (O'Hare, Kennedy/Edens junction where the reversible express lanes begin, Ohio St / Hubbard's Cave where they end, Jane Byrne Interchange) are researched real locations; intermediate vertices are approximated to follow the actual highway curve for correct placement on map tiles. NOTE: the median lanes here are REVERSIBLE / direction-managed express lanes, NOT occupancy HOV/carpool lanes."
      }
    },
    {
      "type": "Feature",
      "geometry": {
        "type": "Point",
        "coordinates": [
          -87.905,
          41.978
        ]
      },
      "properties": {
        "corridorId": "chicago-kennedy",
        "name": "O'Hare area - corridor start",
        "kind": "waypoint"
      }
    },
    {
      "type": "Feature",
      "geometry": {
        "type": "Point",
        "coordinates": [
          -87.757,
          41.968
        ]
      },
      "properties": {
        "corridorId": "chicago-kennedy",
        "name": "Kennedy / Edens junction - reversible express lanes begin",
        "kind": "waypoint"
      }
    },
    {
      "type": "Feature",
      "geometry": {
        "type": "Point",
        "coordinates": [
          -87.652,
          41.892
        ]
      },
      "properties": {
        "corridorId": "chicago-kennedy",
        "name": "Ohio St / Hubbard's Cave - reversible express lanes end",
        "kind": "waypoint"
      }
    },
    {
      "type": "Feature",
      "geometry": {
        "type": "Point",
        "coordinates": [
          -87.638,
          41.8756
        ]
      },
      "properties": {
        "corridorId": "chicago-kennedy",
        "name": "Jane Byrne Interchange",
        "kind": "waypoint"
      }
    }
  ]
}
